NORAD_CAT_ID,OBJECT_NAME,OBJECT_TYPE,EPOCH,MEAN_MOTION,ECCENTRICITY,INCLINATION,RA_OF_ASC_NODE,ARG_OF_PERICENTER,MEAN_ANOMALY,BSTAR,MEAN_MOTION_DOT,MEAN_MOTION_DDOT,TLE_LINE0,TLE_LINE1,TLE_LINE2,SEMIMAJOR_AXIS,PERIOD,APOGEE,PERIGEE,DECAYED
51739.0,STARLINK-3516,PAYLOAD,2022-02-25 16:00:01,15.77841464,7.659999999999999e-05,53.2179,119.4516,59.457,87.3821,-0.0053277,-0.00832249,0.0,0 STARLINK-3516,1 51739U 22016AB  22056.66668981 -.00832249  00000-0 -53277-2 0  9997,2 51739  53.2179 119.4516 0000766  59.4570  87.3821 15.77841464  1928,6714.695,91.264,337.074,336.045,0.0
51739.0,STARLINK-3516,PAYLOAD,2022-02-25 22:00:00,15.77400806,0.0001079,53.2176,118.2041,70.2722,57.1764,-0.0057371,-0.00874263,0.0,0 STARLINK-3516,1 51739U 22016AB  22056.91667824 -.00874263  00000-0 -57371-2 0  9991,2 51739  53.2176 118.2041 0001079  70.2722  57.1764 15.77400806  1363,6715.945,91.289,338.535,337.085,0.0
51739.0,STARLINK-3516,PAYLOAD,2022-02-26 06:00:00,15.76771743,0.0001171,53.2178,116.5452,79.2931,141.7464,-0.005901,-0.00874265,0.0,0 STARLINK-3516,1 51739U 22016AB  22057.25001157 -.00874265  00000-0 -59010-2 0  9994,2 51739  53.2178 116.5452 0001171  79.2931 141.7464 15.76771743  2016,6717.731,91.326,340.3830000000001,338.81,0.0
51739.0,STARLINK-3516,PAYLOAD,2022-02-26 14:00:01,15.76141421,0.0001068,53.2174,114.8895,74.6794,239.1943,-0.0060581,-0.00872801,0.0,0 STARLINK-3516,1 51739U 22016AB  22057.58334491 -.00872801  00000-0 -60581-2 0  9999,2 51739  53.2174 114.8895 0001068  74.6794 239.1943 15.76141421  1461,6719.522,91.362,342.105,340.6690000000001,0.0
51739.0,STARLINK-3516,PAYLOAD,2022-02-26 22:00:00,15.75512258,9.8e-05,53.2174,113.2317,73.6809,332.2731,-0.006228,-0.0087261,0.0,0 STARLINK-3516,1 51739U 22016AB  22057.91667824 -.00872610  00000-0 -62280-2 0  9991,2 51739  53.2174 113.2317 0000980  73.6809 332.2731 15.75512258  1527,6721.311,91.399,343.835,342.517,0.0
51739.0,STARLINK-3516,PAYLOAD,2022-02-27 06:00:00,15.74883742,0.0001284999999999,53.2175,111.5773,56.2191,81.0566,-0.0064101,-0.00873609,0.0,0 STARLINK-3516,1 51739U 22016AB  22058.25001157 -.00873609  00000-0 -64101-2 0  9993,2 51739  53.2175 111.5773 0001285  56.2191  81.0566 15.74883742  2169,6723.099,91.435,345.82800000000015,344.1,0.0
51739.0,STARLINK-3516,PAYLOAD,2022-02-27 14:00:01,15.7425182,0.000125,53.2176,109.9261,62.1878,165.6542,-0.0065581999999999,-0.00869803,0.0,0 STARLINK-3516,1 51739U 22016AB  22058.58334491 -.00869803  00000-0 -65582-2 0  9994,2 51739  53.2176 109.9261 0001250  62.1878 165.6542 15.74251820  1622,6724.898,91.472,347.60400000000016,345.922,0.0
51739.0,STARLINK-3516,PAYLOAD,2022-02-27 22:00:00,15.73455015,0.0001233,53.2177,108.2728,64.1894,253.4916,-0.0026518,-0.0036118,0.0,0 STARLINK-3516,1 51739U 22016AB  22058.91667824 -.00361180  00000-0 -26518-2 0  9991,2 51739  53.2177 108.2728 0001233  64.1894 253.4916 15.73455015  1671,6727.168000000002,91.518,349.86300000000006,348.204,0.0
51739.0,STARLINK-3516,PAYLOAD,2022-02-28 06:00:00,15.73207305,0.0001245,53.2178,106.6235,54.3988,352.3528,-3.9078e-05,-6.102e-05,0.0,0 STARLINK-3516,1 51739U 22016AB  22059.25001157 -.00006102  00000-0 -39078-4 0  9997,2 51739  53.2178 106.6235 0001245  54.3988 352.3528 15.73207305  2323,6727.874,91.533,350.577,348.902,0.0
51739.0,STARLINK-3516,PAYLOAD,2022-02-28 14:00:01,15.73240875,0.0001378,53.2195,104.9818,60.5668,75.2822,0.00042257,0.00059208,0.0,0 STARLINK-3516,1 51739U 22016AB  22059.58334491  .00059208  00000-0  42257-3 0  9998,2 51739  53.2195 104.9818 0001378  60.5668  75.2822 15.73240875  2373,6727.779,91.531,350.571,348.717,0.0
51739.0,STARLINK-3516,PAYLOAD,2022-02-28 22:00:00,15.73238339,0.0001042,53.2188,103.3302,63.8322,161.0064,-0.00057531,-0.00080719,0.0,0 STARLINK-3516,1 51739U 22016AB  22059.91667824 -.00080719  00000-0 -57531-3 0  9998,2 51739  53.2188 103.3302 0001042  63.8322 161.0064 15.73238339  2438,6727.786,91.531,350.352,348.95,0.0
51739.0,STARLINK-3516,PAYLOAD,2022-03-01 14:00:01,15.73130671,0.0001312,53.2188,100.0334,53.1678,349.5232,0.00045927,0.00064137,0.0,0 STARLINK-3516,1 51739U 22016AB  22060.58334491  .00064137  00000-0  45927-3 0  9994,2 51739  53.2188 100.0334 0001312  53.1678 349.5232 15.73130671  2534,6728.093000000003,91.537,350.841,349.075,0.0
51739.0,STARLINK-3516,PAYLOAD,2022-03-01 22:00:01,15.73147105,0.0001158,53.2188,98.382,61.5809,70.0533,0.0005191,0.00072699,0.0,0 STARLINK-3516,1 51739U 22016AB  22060.91668981  .00072699  00000-0  51910-3 0  9996,2 51739  53.2188  98.3820 0001158  61.5809  70.0533 15.73147105  1999,6728.045999999999,91.536,350.69,349.13199999999995,0.0
51739.0,STARLINK-3516,PAYLOAD,2022-03-02 06:00:00,15.73210931,0.0001295,53.2186,96.7335,60.8829,159.5774,5.3823e-05,6.943e-05,0.0,0 STARLINK-3516,1 51739U 22016AB  22061.25001157  .00006943  00000-0  53823-4 0  9995,2 51739  53.2186  96.7335 0001295  60.8829 159.5774 15.73210931  2647,6727.864000000001,91.533,350.6,348.858,0.0
51739.0,STARLINK-3516,PAYLOAD,2022-03-02 14:00:01,15.73224793,0.0001439,53.2179,95.0851,53.8071,255.5998,0.00022778,0.00031501,0.0,0 STARLINK-3516,1 51739U 22016AB  22061.58334491  .00031501  00000-0  22778-3 0  9993,2 51739  53.2179  95.0851 0001439  53.8071 255.5998 15.73224793  2102,6727.824000000001,91.532,350.658,348.721,0.0
51739.0,STARLINK-3516,PAYLOAD,2022-03-02 22:00:00,15.73186575,0.000138,53.2179,93.4333,67.9448,330.4475,0.0003863,0.00053912,0.0,0 STARLINK-3516,1 51739U 22016AB  22061.91667824  .00053912  00000-0  38630-3 0  9993,2 51739  53.2179  93.4333 0001380  67.9448 330.4475 15.73186575  2151,6727.933000000001,91.534,350.727,348.87,0.0
51739.0,STARLINK-3516,PAYLOAD,2022-03-03 14:00:01,15.7316876,0.0001411,53.218,90.1363,53.6411,162.618,0.00044645,0.00062419,0.0,0 STARLINK-3516,1 51739U 22016AB  22062.58334491  .00062419  00000-0  44645-3 0  9993,2 51739  53.2180  90.1363 0001411  53.6411 162.6180 15.73168760  2858,6727.984,91.535,350.7990000000001,348.9,0.0
51739.0,STARLINK-3516,PAYLOAD,2022-03-03 18:00:00,15.73051859,0.0001904,53.2174,89.3041,64.8559,15.7789,0.0017619,0.00252627,0.0,0 STARLINK-3516,1 51739U 22016AB  22062.75001157  .00252627  00000-0  17619-2 0  9994,2 51739  53.2174  89.3041 0001904  64.8559  15.7789 15.73051859  2873,6728.318,91.542,351.464,348.901,0.0
51739.0,STARLINK-3516,PAYLOAD,2022-03-03 22:00:00,15.73204124,0.0001757,53.2175,88.4775,72.1248,232.9055,5.1735000000000005e-06,1.05e-06,0.0,0 STARLINK-3516,1 51739U 22016AB  22062.91667824  .00000105  00000-0  51735-5 0  9993,2 51739  53.2175  88.4775 0001757  72.1248 232.9055 15.73204124  2314,6727.8830000000025,91.533,350.931,348.566,0.0
51739.0,STARLINK-3516,PAYLOAD,2022-03-04 14:00:01,15.73233215,0.000143,53.2174,85.1872,52.194,71.0406,-3.2143e-05,-5.135e-05,0.0,0 STARLINK-3516,1 51739U 22016AB  22063.58335648 -.00005135  00000-0 -32143-4 0  9994,2 51739  53.2174  85.1872 0001430  52.1940  71.0406 15.73233215  3002,6727.8,91.531,350.62800000000016,348.70300000000015,0.0
51739.0,STARLINK-3516,PAYLOAD,2022-03-04 22:00:00,15.73198325,0.0001249,53.2175,83.5356,63.68600000000001,148.4615,6.708199999999999e-05,8.804e-05,0.0,0 STARLINK-3516,1 51739U 22016AB  22063.91667824  .00008804  00000-0  67082-4 0  9999,2 51739  53.2175  83.5356 0001249  63.6860 148.4615 15.73198325  2460,6727.9,91.533,350.605,348.925,0.0
51739.0,STARLINK-3516,PAYLOAD,2022-03-05 06:00:00,15.73179681,0.0001309,53.2179,81.8875,58.0913,242.9959,-0.00012453,-0.00018044,0.0,0 STARLINK-3516,1 51739U 22016AB  22064.25001157 -.00018044  00000-0 -12453-3 0  9998,2 51739  53.2179  81.8875 0001309  58.0913 242.9959 15.73179681  3113,6727.953,91.534,350.699,348.93699999999984,0.0
51739.0,STARLINK-3516,PAYLOAD,2022-03-05 14:00:01,15.73194709,0.0001288,53.2178,80.2386,47.6233,342.3692,0.0003335,0.00046433,0.0,0 STARLINK-3516,1 51739U 22016AB  22064.58334491  .00046433  00000-0  33350-3 0  9994,2 51739  53.2178  80.2386 0001288  47.6233 342.3692 15.73194709  2573,6727.91,91.533,350.642,348.909,0.0
51739.0,STARLINK-3516,PAYLOAD,2022-03-05 16:00:00,15.73232758,0.0001227,53.2181,79.8256,50.8907,91.3246,-0.00021943,-0.00031344,0.0,0 STARLINK-3516,1 51739U 22016AB  22064.66667824 -.00031344  00000-0 -21943-3 0  9994,2 51739  53.2181  79.8256 0001227  50.8907  91.3246 15.73232758  3185,6727.802,91.531,350.492,348.841,0.0
51739.0,STARLINK-3516,PAYLOAD,2022-03-05 22:00:01,15.73196409,0.0001,53.218,78.5871,54.31399999999999,64.6943,0.00012232,0.00016578,0.0,0 STARLINK-3516,1 51739U 22016AB  22064.91668981  .00016578  00000-0  12232-3 0  9998,2 51739  53.2180  78.5871 0001000  54.3140  64.6943 15.73196409  2627,6727.905,91.533,350.4430000000001,349.098,0.0
51739.0,STARLINK-3516,PAYLOAD,2022-03-06 06:00:00,15.73243454,0.0001073,53.218,76.9392,44.7228,163.1711,-0.00045916,-0.00064684,0.0,0 STARLINK-3516,1 51739U 22016AB  22065.25001157 -.00064684  00000-0 -45916-3 0  9990,2 51739  53.2180  76.9392 0001073  44.7228 163.1711 15.73243454  3270,6727.771,91.531,350.358,348.914,0.0
51739.0,STARLINK-3516,PAYLOAD,2022-03-06 14:00:01,15.73238441,0.0001094,53.2175,75.29,40.0301,256.8053,-0.00034421,-0.00048726,0.0,0 STARLINK-3516,1 51739U 22016AB  22065.58334491 -.00048726  00000-0 -34421-3 0  9994,2 51739  53.2175  75.2900 0001094  40.0301 256.8053 15.73238441  2734,6727.786,91.531,350.38699999999994,348.915,0.0
51739.0,STARLINK-3516,PAYLOAD,2022-03-06 22:00:00,15.73186439,0.0001071,53.2177,73.6386,58.6444,327.1399,0.00015048,0.00020538,0.0,0 STARLINK-3516,1 51739U 22016AB  22065.91667824  .00020538  00000-0  15048-3 0  9993,2 51739  53.2177  73.6386 0001071  58.6444 327.1399 15.73186439  3379,6727.934,91.534,350.519,349.07800000000015,0.0
51739.0,STARLINK-3516,PAYLOAD,2022-03-07 06:00:00,15.73181131,0.0001233,53.218,71.991,53.6195,61.0731,-0.00064165,-0.00089644,0.0,0 STARLINK-3516,1 51739U 22016AB  22066.25001157 -.00089644  00000-0 -64165-3 0  9991,2 51739  53.2180  71.9910 0001233  53.6195  61.0731 15.73181131  3429,6727.949000000001,91.534,350.644,348.9840000000001,0.0
